STARLINK-2414_new
1 18095C 21027D   21326.16353828 -.00013600  00000-0 -91099-3 0  3265
2 18095  53.0550  13.0177 0001506  55.8619 101.2794 15.06422409    19
STARLINK-2414_old
1 28095C 21027D   21325.14999567  .00002825  00000-0  18927-3 0  3251
2 28095  53.0549  17.5679 0001413  57.1433   0.4736 15.06398245    15
